FLOCK 3P-47             
1 42032U 17008CN  17282.93539248  .00004727  00000-0  20226-3 0  9995
2 42032  97.4836 344.0031 0008737 160.7117 199.4452 15.23272391 35820
FLOCK 3P-44             
1 42033U 17008CP  17283.12583475  .00003495  00000-0  15028-3 0  9994
2 42033  97.4839 344.2142 0008663 162.5738 197.5798 15.23288012 34600
FLOCK 3P-64             
1 42034U 17008CQ  17283.12511056  .00003307  00000-0  14247-3 0  9995
2 42034  97.4835 344.2031 0008570 161.5613 198.5936 15.23269115 36028
FLOCK 3P-63             
1 42035U 17008CR  17283.12372952  .00003944  00000-0  16915-3 0  9997
2 42035  97.4833 344.2013 0008597 161.5723 198.5827 15.23303100 33993
FLOCK 3P-62             
1 42036U 17008CS  17283.17728585  .00003569  00000-0  15309-3 0  9999
2 42036  97.4836 344.2876 0008606 163.7440 196.4075 15.23357803 35202
FLOCK 3P-38             
1 42037U 17008CT  17282.92504368  .00003370  00000-0  14501-3 0  9996
2 42037  97.4835 344.0079 0008241 162.5224 197.6297 15.23299477 35949
FLOCK 3P-39             
1 42038U 17008CU  17283.12040668  .00004115  00000-0  17639-3 0  9991
2 42038  97.4829 344.1967 0008492 162.1759 197.9777 15.23294487 35927
FLOCK 3P-15             
1 42039U 17008CV  17282.86174737  .00004901  00000-0  20945-3 0  9994
2 42039  97.4833 343.9390 0008360 162.7649 197.3873 15.23296054 35167
FLOCK 3P-13             
1 42040U 17008CW  17283.11928084  .00004603  00000-0  19706-3 0  9999
2 42040  97.4835 344.2129 0008270 163.3314 196.8196 15.23275332 35192
FLOCK 3P-55             
1 42041U 17008CX  17283.03117632  .00003656  00000-0  15702-3 0  9999
2 42041  97.4836 344.1731 0007935 166.6165 193.5283 15.23301749 36025
FLOCK 3P-56             
1 42042U 17008CY  17283.21824458  .00003163  00000-0  13503-3 0  9991
2 42042  97.4831 344.3726 0007944 165.6705 194.4759 15.23610432 35845
FLOCK 3P-81             
1 42043U 17008CZ  17283.21083429  .00002625  00000-0  11371-3 0  9990
2 42043  97.4860 344.3259 0009346 147.3107 212.8710 15.23263253 35229
FLOCK 3P-87             
1 42044U 17008DA  17282.89121380  .00002141  00000-0  93343-4 0  9996
2 42044  97.4856 343.9749 0009515 145.7179 214.4673 15.23253540 35328
FLOCK 3P-29             
1 42045U 17008DB  17282.89279980  .00004357  00000-0  18675-3 0  9992
2 42045  97.4836 343.9144 0009312 142.5933 217.5954 15.23253383 35178
FLOCK 3P-82             
1 42046U 17008DC  17282.89406197  .00003653  00000-0  15688-3 0  9994
2 42046  97.4856 343.9774 0009537 146.8434 213.3402 15.23294969 35225
FLOCK 3P-78             
1 42047U 17008DD  17282.82465821  .00003627  00000-0  15605-3 0  9997
2 42047  97.4857 343.9190 0009480 145.5537 214.6315 15.23241583 35148
FLOCK 3P-74             
1 42048U 17008DE  17282.89904593  .00004584  00000-0  19621-3 0  9994
2 42048  97.4859 343.9808 0009731 146.3696 213.8160 15.23271350 35156
FLOCK 3P-31             
1 42049U 17008DF  17282.70309682  .00003824  00000-0  16440-3 0  9995
2 42049  97.4837 343.7110 0009363 144.4028 215.7835 15.23229547 34583
FLOCK 3P-83             
1 42050U 17008DG  17282.90137736  .00004745  00000-0  20316-3 0  9998
2 42050  97.4855 343.9675 0009629 147.1530 213.0307 15.23241448 35889
FLOCK 3P-72             
1 42051U 17008DH  17282.68403466  .00006048  00000-0  25785-3 0  9993
2 42051  97.4864 343.8119 0009110 146.5221 213.6594 15.23276966 33444
LEMUR-2-REDFERN-GOES    
1 42059U 98067LA  17282.95331906  .00021059  00000-0  23893-3 0  9991
2 42059  51.6369 179.5891 0006003  18.0593 342.0613 15.62301771 33926
LEMUR-2-TRUTNA          
1 42067U 98067LC  17283.10933481  .00044866  00000-0  39313-3 0  9999
2 42067  51.6359 175.3660 0003914  31.1613 328.9616 15.68397800 33828
LEMUR-2-AUSTINTACIOUS   
1 42068U 98067LD  17282.89348983  .00025808  00000-0  27436-3 0  9990
2 42068  51.6375 179.1910 0005164  11.5234 348.5878 15.63844852 33857
LEMUR-2-TRUTNAHD        
1 42069U 98067LE  17282.92705084  .00023183  00000-0  25705-3 0  9995
2 42069  51.6379 179.4296 0005178  18.2998 341.8182 15.62833844 33906
HAVELSAT                
1 42700U 98067LH  17282.94118165  .00020310  00000-0  25500-3 0  9999
2 42700  51.6382 183.2628 0005753  48.3431 311.8054 15.59677221 22824
SOMP 2                  
1 42701U 98067LJ  17283.15037513  .00016636  00000-0  21329-3 0  9992
2 42701  51.6381 182.4119 0005709  48.3996 311.7485 15.59279628 22845
COLUMBIA                
1 42702U 98067LK  17283.08985972  .00051634  00000-0  51469-3 0  9991
2 42702  51.6362 180.4986 0004109  64.9415 295.2007 15.65135167 22794
SGSAT                   
1 42703U 98067LL  17283.22242735  .00032432  00000-0  35428-3 0  9993
2 42703  51.6358 180.6308 0000632  77.7054 282.4011 15.63031858 22791
CXBN-2                  
1 42704U 98067LM  17283.15705113  .00019644  00000-0  25004-3 0  9999
2 42704  51.6382 182.4575 0000995  32.8684 327.2371 15.59351406 22772
ICECUBE                 
1 42705U 98067LN  17283.12331986  .00028856  00000-0  34701-3 0  9999
2 42705  51.6402 182.2440 0001056 359.3611   0.7380 15.60603257 22837
PHOENIX                 
1 42706U 98067LP  17283.14283372  .00021197  00000-0  26781-3 0  9997
2 42706  51.6381 182.3646 0001342  70.6232 289.4906 15.59494072 22766
X-CUBESAT               
1 42707U 98067LQ  17283.14120241  .00021201  00000-0  26668-3 0  9993
2 42707  51.6371 182.3464 0001398  72.9326 287.1820 15.59611191 22756
QBEE50-LTU-OC           
1 42708U 98067LR  17283.14594937  .00017695  00000-0  22464-3 0  9993
2 42708  51.6370 182.3783 0001369  69.8134 290.3006 15.59501838 22714
ALTAIR PATHFINDER       
1 42711U 98067LS  17283.16200164  .00010871  00000-0  14976-3 0  9993
2 42711  51.6382 183.2344 0003160 338.5269  21.5590 15.57800427 22413
SHARC                   
1 42712U 98067LT  17283.10313574  .00012158  00000-0  16905-3 0  9992
2 42712  51.6390 183.5995 0001609 359.0164   1.0825 15.57418845 22644
ZA-AEROSAT              
1 42713U 98067LU  17283.12110715  .00016307  00000-0  21482-3 0  9993
2 42713  51.6383 182.9655 0000957 352.4518   7.6460 15.58584905 22412
LINK                    
1 42714U 98067LV  17283.14122601  .00027176  00000-0  33068-3 0  9992
2 42714  51.6369 182.3436 0000567  19.7665 340.3350 15.60328030 22537
CSUNSAT 1               
1 42715U 98067LW  17283.12508142  .00017651  00000-0  23033-3 0  9997
2 42715  51.6387 182.9880 0002851 324.8658  35.2147 15.58770858 22414
UPSAT                   
1 42716U 98067LX  17283.12680778  .00023921  00000-0  29331-3 0  9998
2 42716  51.6381 182.2541 0004238  59.2133 300.9277 15.60198487 22550
SPACECUBE               
1 42717U 98067LY  17283.15831461  .00016776  00000-0  21454-3 0  9997
2 42717  51.6379 182.4633 0004320  56.4282 303.7123 15.59346771 21793
HOOPOE                  
1 42718U 98067LZ  17283.14239595  .00022553  00000-0  28132-3 0  9997
2 42718  51.6377 182.3576 0004202  56.1724 303.9668 15.59784317 21792
CHALLENGER              
1 42721U 98067MA  17283.12613946  .00030792  00000-0  36444-3 0  9994
2 42721  51.6370 182.2395 0005797  30.8054 329.3279 15.60969435 21497
NJUST-1                 
1 42722U 98067MB  17283.21207149  .00013898  00000-0  18550-3 0  9995
2 42722  51.6383 182.8190 0006675  27.3549 332.7794 15.58366922 21496
UNSW-ECO                
1 42723U 98067MC  17283.10922080  .00022646  00000-0  28439-3 0  9990
2 42723  51.6383 182.8862 0006187  28.7692 331.3641 15.59593753 21463
DUTHSAT                 
1 42724U 98067MD  17283.13983358  .00028413  00000-0  34028-3 0  9998
2 42724  51.6380 182.3378 0005136  36.7547 323.3797 15.60708569 21399
LILACSAT-1              
1 42725U 98067ME  17283.20817391  .00016531  00000-0  21643-3 0  9997
2 42725  51.6385 182.7955 0005641  33.4115 326.7232 15.58727257 21399
NSIGHT-1                
1 42726U 98067MF  17283.13348920  .00009582  00000-0  13657-3 0  9991
2 42726  51.6394 183.7996 0006279  31.0190 329.1172 15.57032526 21387
SNUSAT-1                
1 42727U 98067MG  17282.94908874  .00017507  00000-0  22902-3 0  9999
2 42727  51.6370 184.0558 0006215 346.4351  13.6474 15.58698190 21322
QBITO                   
1 42728U 98067MH  17283.12000273  .00020294  00000-0  25957-3 0  9997
2 42728  51.6397 182.9653 0003417  51.4539 308.6759 15.59196704 21190
AALTO-2                 
1 42729U 98067MJ  17283.11987602  .00020881  00000-0  26673-3 0  9995
2 42729  51.6386 182.9583 0003340  51.6291 308.5001 15.59210201 21203
SUSAT                   
1 42730U 98067MK  17283.12793209  .00020419  00000-0  26322-3 0  9994
2 42730  51.6383 183.0089 0003377  47.4347 312.6930 15.58984286 21195
I-INSPIRE II            
1 42731U 98067ML  17283.16554455  .00020256  00000-0  25277-3 0  9994
2 42731  51.6372 182.4996 0005044 330.0996  29.9708 15.59845218 21258
POLYITAN-2-SAU          
1 42732U 98067MM  17283.11513100  .00021187  00000-0  26920-3 0  9992
2 42732  51.6375 182.9144 0005317 329.2287  30.8394 15.59333437 21244
SNUSAT-1B               
1 42733U 98067MN  17283.12779681  .00019892  00000-0  25633-3 0  9992
2 42733  51.6380 183.0003 0005413 332.2894  27.7810 15.59004847 21240
EXALTA-1                
1 42734U 98067MP  17283.16769184  .00018907  00000-0  23751-3 0  9999
2 42734  51.6372 182.5162 0006944 358.9298   1.1679 15.59708991 21201
AOXIANG-1               
1 42735U 98067MQ  17282.95143310  .00015538  00000-0  20588-3 0  9995
2 42735  51.6378 184.0764 0007174  22.2778 337.8525 15.58452819 22588
BEEAGLESAT              
1 42736U 98067MR  17283.13760650  .00018157  00000-0  23707-3 0  9995
2 42736  51.6375 183.0694 0006901  22.4498 337.6795 15.58715690 21300
ATLANTIS                
1 42737U 98067MS  17282.92083112  .00043686  00000-0  46246-3 0  9991
2 42737  51.6355 182.3604 0004736  28.5989 331.5265 15.63681791 21189
LEMUR-2-ANGELA          
1 42752U 17019B   17283.19532066  .00003257  00000-0  13025-3 0  9992
2 42752  51.6416 209.3226 0011177  36.4811 323.6928 15.27983221 18876
